STARLINK-30092          
1 57467U 23107L   26142.69798263  .00000960  00000+0  44393-4 0  9998
2 57467  43.0046 278.3211 0002086 259.2625 100.7992 15.27588376156461
STARLINK-30039          
1 57468U 23107M   26142.44028132 -.00002247  00000+0 -72117-4 0  9990
2 57468  43.0031 279.8245 0001229 260.7474  99.3238 15.27591884156426
STARLINK-30171          
1 57469U 23107N   26142.74488972 -.00000509  00000+0 -89744-5 0  9990
2 57469  43.0000 281.2243 0001352 268.3961  91.6735 15.27569215156431
STARLINK-30186          
1 57470U 23107P   26142.75002315  .00073755  00000+0  27171-2 0  9990
2 57470  43.0005 286.0935 0001485 291.2056 192.8718 15.26919306  5860
STARLINK-30204          
1 57472U 23107R   26142.68387073 -.00003910  00000+0 -13276-3 0  9991
2 57472  43.0003 278.2138 0000849 240.5869 119.4897 15.27548275156460
STARLINK-30155          
1 57475U 23107U   26142.72353589  .00003594  00000+0  14010-3 0  9997
2 57475  43.0015 277.6562 0001702 267.2478  92.8179 15.27576438156471
STARLINK-30161          
1 57476U 23107V   26142.72738791  .00008088  00000+0  30309-3 0  9992
2 57476  43.0003 277.6803 0001423 270.4019  89.6669 15.27582923156478
STARLINK-30176          
1 57477U 23107W   26142.73124463  .00011372  00000+0  42225-3 0  9999
2 57477  43.0002 277.7108 0001566 272.3789  87.6884 15.27571486156479
JUPITER 3 (ECHOSTAR 24) 
1 57479U 23108A   26141.59994412  .00000000  00000+0  00000+0 0  9991
2 57479   0.0174 304.9705 0001199 124.3719 290.6705  1.00270254 10383
FENGYUN 3F              
1 57490U 23111A   26142.67713670  .00000025  00000+0  32188-4 0  9997
2 57490  98.6841 213.1598 0001408 110.8456 249.2872 14.19934043145248
GALAXY 37 (G-37)        
1 57493U 23112A   26141.92257414  .00000040  00000+0  00000+0 0  9997
2 57493   0.0154 297.8291 0001844 116.5410  30.3315  1.00273510 10277
STARLINK-30154          
1 57495U 23113A   26142.55319468  .00000278  00000+0  19630-4 0  9995
2 57495  43.0041 318.7514 0001937 301.1001  58.9660 15.27567608154819
STARLINK-30145          
1 57496U 23113B   26142.50192926  .00001541  00000+0  65504-4 0  9994
2 57496  43.0020 319.2303 0001567 257.3082 102.7595 15.27576943154850
STARLINK-30226          
1 57497U 23113C   26142.50579847  .00009347  00000+0  34912-3 0  9996
2 57497  43.0032 319.2755 0001827 276.7877  83.2767 15.27546733154860
STARLINK-30203          
1 57498U 23113D   26142.54804350  .00001368  00000+0  59246-4 0  9994
2 57498  43.0057 318.7221 0001851 263.9340  96.1301 15.27578498154994
STARLINK-30169          
1 57499U 23113E   26142.71534841  .00002502  00000+0  10044-3 0  9992
2 57499  43.0026 303.8277 0002106 255.9409 104.1209 15.27577448155002
STARLINK-30164          
1 57500U 23113F   26141.84678466 -.00000040  00000+0  80687-5 0  9998
2 57500  43.0034 322.9151 0001414 265.8958  94.1732 15.27575943154867
STARLINK-30072          
1 57501U 23113G   26142.52248323  .00000538  00000+0  29082-4 0  9992
2 57501  43.0020 319.3722 0001021 277.8133  82.2602 15.27585590154851
STARLINK-30230          
1 57503U 23113J   26142.49808419 -.00000326  00000+0 -23269-5 0  9997
2 57503  42.9984 319.1893 0001350 272.8030  87.2667 15.27567814154858
STARLINK-30213          
1 57504U 23113K   26142.53019738  .00001789  00000+0  74513-4 0  9990
2 57504  43.0008 319.4302 0001171 273.4205  86.6512 15.27582478154965
STARLINK-30227          
1 57505U 23113L   26142.48053863  .00028962  00000+0  11892-2 0  9993
2 57505  43.0019 309.4933 0008668 292.6908  67.3025 15.23655179155071
STARLINK-30212          
1 57506U 23113M   26142.53405388 -.00000655  00000+0 -14276-4 0  9995
2 57506  43.0031 319.4591 0002019 254.1349 105.9280 15.27575631154803
STARLINK-30219          
1 57507U 23113N   26142.48640603  .00019366  00000+0  65990-3 0  9996
2 57507  43.0013 319.1066 0002784 272.7024  87.3510 15.30035799154969
STARLINK-30074          
1 57508U 23113P   26142.18527748  .00009454  00000+0  35265-3 0  9997
2 57508  42.9986 321.1499 0001642 258.6737 101.3930 15.27578380154705
STARLINK-30082          
1 57509U 23113Q   26142.55705012  .00006389  00000+0  24163-3 0  9990
2 57509  43.0029 318.7873 0001902 265.7590  94.3044 15.27564111154972
STARLINK-30153          
1 57510U 23113R   26142.53904992 -.00000311  00000+0 -17697-5 0  9995
2 57510  43.0057 318.6667 0001949 264.1884  95.8746 15.27582864154863
STARLINK-30147          
1 57511U 23113S   26142.48394839 -.00000441  00000+0 -64993-5 0  9998
2 57511  43.0044 319.0999 0001858 248.6457 111.4196 15.27568332154964
STARLINK-30157          
1 57512U 23113T   26142.68966634  .00001822  00000+0  75727-4 0  9997
2 57512  43.0023 292.3633 0001617 265.1331  94.9336 15.27575320155291
STARLINK-30168          
1 57513U 23113U   26142.54546950 -.00000897  00000+0 -23085-4 0  9991
2 57513  43.0037 318.6745 0001485 265.6971  94.3711 15.27580230154815
STARLINK-30231          
1 57514U 23113V   26141.84164522 -.00000427  00000+0 -60020-5 0  9995
2 57514  43.0024 322.8687 0001195 257.8734 102.1984 15.27574524154866
