OBJECT_NAME,OBJECT_ID,EPOCH,MEAN_MOTION,ECCENTRICITY,INCLINATION,RA_OF_ASC_NODE,ARG_OF_PERICENTER,MEAN_ANOMALY,EPHEMERIS_TYPE,CLASSIFICATION_TYPE,NORAD_CAT_ID,ELEMENT_SET_NO,REV_AT_EPOCH,BSTAR,MEAN_MOTION_DOT,MEAN_MOTION_DDOT
STARLINK-30092,2023-107L,2026-05-22T16:45:05.699232,15.27588376,.0002086,43.0046,278.3211,259.2625,100.7992,0,U,57467,999,15646,.44393E-4,.96E-5,0
STARLINK-30039,2023-107M,2026-05-22T10:34:00.306048,15.27591884,.0001229,43.0031,279.8245,260.7474,99.3238,0,U,57468,999,15642,-.72117E-4,-.2247E-4,0
STARLINK-30171,2023-107N,2026-05-22T17:52:38.471808,15.27569215,.0001352,43.0000,281.2243,268.3961,91.6735,0,U,57469,999,15643,-.89744E-5,-.509E-5,0
STARLINK-30186,2023-107P,2026-05-22T18:00:02.000160,15.26919306,.0001485,43.0005,286.0935,291.2056,192.8718,0,U,57470,999,586,.27171E-2,.73755E-3,0
STARLINK-30204,2023-107R,2026-05-22T16:24:46.431072,15.27548275,.0000849,43.0003,278.2138,240.5869,119.4897,0,U,57472,999,15646,-.13276E-3,-.391E-4,0
STARLINK-30155,2023-107U,2026-05-22T17:21:53.500896,15.27576438,.0001702,43.0015,277.6562,267.2478,92.8179,0,U,57475,999,15647,.1401E-3,.3594E-4,0
STARLINK-30161,2023-107V,2026-05-22T17:27:26.315424,15.27582923,.0001423,43.0003,277.6803,270.4019,89.6669,0,U,57476,999,15647,.30309E-3,.8088E-4,0
STARLINK-30176,2023-107W,2026-05-22T17:32:59.536032,15.27571486,.0001566,43.0002,277.7108,272.3789,87.6884,0,U,57477,999,15647,.42225E-3,.11372E-3,0
JUPITER 3 (ECHOSTAR 24),2023-108A,2026-05-21T14:23:55.171968,1.00270254,.00011995,0.0174,304.9705,124.3719,290.6705,0,U,57479,999,1038,0,0,0
FENGYUN 3F,2023-111A,2026-05-22T16:15:04.610880,14.19934043,.0001408,98.6841,213.1598,110.8456,249.2872,0,U,57490,999,14524,.32188E-4,.25E-6,0
GALAXY 37 (G-37),2023-112A,2026-05-21T22:08:30.405696,1.00273510,.00018443,0.0154,297.8291,116.5410,30.3315,0,U,57493,999,1027,0,.4E-6,0
STARLINK-30154,2023-113A,2026-05-22T13:16:36.020352,15.27567608,.0001937,43.0041,318.7514,301.1001,58.9660,0,U,57495,999,15481,.1963E-4,.278E-5,0
STARLINK-30145,2023-113B,2026-05-22T12:02:46.688064,15.27576943,.0001567,43.0020,319.2303,257.3082,102.7595,0,U,57496,999,15485,.65504E-4,.1541E-4,0
STARLINK-30226,2023-113C,2026-05-22T12:08:20.987808,15.27546733,.0001827,43.0032,319.2755,276.7877,83.2767,0,U,57497,999,15486,.34912E-3,.9347E-4,0
STARLINK-30203,2023-113D,2026-05-22T13:09:10.958400,15.27578498,.0001851,43.0057,318.7221,263.9340,96.1301,0,U,57498,999,15499,.59246E-4,.1368E-4,0
STARLINK-30169,2023-113E,2026-05-22T17:10:06.102624,15.27577448,.0002106,43.0026,303.8277,255.9409,104.1209,0,U,57499,999,15500,.10044E-3,.2502E-4,0
STARLINK-30164,2023-113F,2026-05-21T20:19:22.194624,15.27575943,.00014141,43.0034,322.9151,265.8958,94.1732,0,U,57500,999,15486,.8068658E-5,-.4E-6,0
STARLINK-30072,2023-113G,2026-05-22T12:32:22.551072,15.27585590,.0001021,43.0020,319.3722,277.8133,82.2602,0,U,57501,999,15485,.29082E-4,.538E-5,0
STARLINK-30230,2023-113J,2026-05-22T11:57:14.474016,15.27567814,.000135,42.9984,319.1893,272.8030,87.2667,0,U,57503,999,15485,-.23269E-5,-.326E-5,0
STARLINK-30213,2023-113K,2026-05-22T12:43:29.053632,15.27582478,.0001171,43.0008,319.4302,273.4205,86.6512,0,U,57504,999,15496,.74513E-4,.1789E-4,0
STARLINK-30227,2023-113L,2026-05-22T11:31:58.537632,15.23655179,.0008668,43.0019,309.4933,292.6908,67.3025,0,U,57505,999,15507,.11892E-2,.28962E-3,0
STARLINK-30212,2023-113M,2026-05-22T12:49:02.255232,15.27575631,.0002019,43.0031,319.4591,254.1349,105.9280,0,U,57506,999,15480,-.14276E-4,-.655E-5,0
STARLINK-30219,2023-113N,2026-05-22T11:40:25.480992,15.30035799,.0002784,43.0013,319.1066,272.7024,87.3510,0,U,57507,999,15496,.6599E-3,.19366E-3,0
STARLINK-30074,2023-113P,2026-05-22T04:26:47.974272,15.27578380,.00016422,42.9986,321.1499,258.6737,101.3930,0,U,57508,999,15470,.35264938E-3,.9454E-4,0
STARLINK-30082,2023-113Q,2026-05-22T13:22:09.130368,15.27564111,.0001902,43.0029,318.7873,265.7590,94.3044,0,U,57509,999,15497,.24163E-3,.6389E-4,0
STARLINK-30153,2023-113R,2026-05-22T12:56:13.913088,15.27582864,.0001949,43.0057,318.6667,264.1884,95.8746,0,U,57510,999,15486,-.17697E-5,-.311E-5,0
STARLINK-30147,2023-113S,2026-05-22T11:36:53.140896,15.27568332,.0001858,43.0044,319.0999,248.6457,111.4196,0,U,57511,999,15496,-.64993E-5,-.441E-5,0
STARLINK-30157,2023-113T,2026-05-22T16:33:07.171776,15.27575320,.0001617,43.0023,292.3633,265.1331,94.9336,0,U,57512,999,15529,.75727E-4,.1822E-4,0
STARLINK-30168,2023-113U,2026-05-22T13:05:28.564800,15.27580230,.0001485,43.0037,318.6745,265.6971,94.3711,0,U,57513,999,15481,-.23085E-4,-.897E-5,0
STARLINK-30231,2023-113V,2026-05-21T20:11:58.147008,15.27574524,.00011959,43.0024,322.8687,257.8734,102.1984,0,U,57514,999,15486,-.6002032E-5,-.427E-5,0
